JILIN-1 GAOFEN 3A       
1 44312U 19032C   26068.74542089  .00016264  00000+0  55381-3 0  9993
2 44312  44.9746 183.2861 0002618 111.2900 248.8263 15.30271310372592
STARLINK-35613          
1 66097U 25236M   26068.47329239  .00024034  00000+0  82088-3 0  9998
2 66097  53.1589 104.7240 0001211  91.1410 268.9729 15.30202761 22914
