[{"OBJECT_NAME":"JILIN-1 GAOFEN 3A","OBJECT_ID":"2019-032C","EPOCH":"2026-03-09T17:53:24.364896","MEAN_MOTION":15.3027131,"ECCENTRICITY":0.00026181,"INCLINATION":44.9746,"RA_OF_ASC_NODE":183.2861,"ARG_OF_PERICENTER":111.29,"MEAN_ANOMALY":248.8263,"EPHEMERIS_TYPE":0,"CLASSIFICATION_TYPE":"U","NORAD_CAT_ID":44312,"ELEMENT_SET_NO":999,"REV_AT_EPOCH":37259,"BSTAR":0.00055381133,"MEAN_MOTION_DOT":0.00016264,"MEAN_MOTION_DDOT":0},{"OBJECT_NAME":"STARLINK-35613","OBJECT_ID":"2025-236M","EPOCH":"2026-03-09T11:21:32.462496","MEAN_MOTION":15.30202761,"ECCENTRICITY":0.00012116,"INCLINATION":53.1589,"RA_OF_ASC_NODE":104.724,"ARG_OF_PERICENTER":91.141,"MEAN_ANOMALY":268.9729,"EPHEMERIS_TYPE":0,"CLASSIFICATION_TYPE":"U","NORAD_CAT_ID":66097,"ELEMENT_SET_NO":999,"REV_AT_EPOCH":2291,"BSTAR":0.0008208773,"MEAN_MOTION_DOT":0.00024034,"MEAN_MOTION_DDOT":0}]
